[{"OBJECT_NAME":"STARLINK-2123","OBJECT_ID":"2021-005BE","EPOCH":"2026-03-09T04:49:57.497952","MEAN_MOTION":15.06394562,"ECCENTRICITY":0.00014727,"INCLINATION":53.0564,"RA_OF_ASC_NODE":33.8148,"ARG_OF_PERICENTER":87.9808,"MEAN_ANOMALY":272.135,"EPHEMERIS_TYPE":0,"CLASSIFICATION_TYPE":"U","NORAD_CAT_ID":47401,"ELEMENT_SET_NO":999,"REV_AT_EPOCH":28339,"BSTAR":-3.260446e-5,"MEAN_MOTION_DOT":-7.67e-6,"MEAN_MOTION_DDOT":0},{"OBJECT_NAME":"CZ-2D DEB","OBJECT_ID":"2017-060C","EPOCH":"2026-03-09T12:36:22.356864","MEAN_MOTION":15.07716497,"ECCENTRICITY":0.0018685,"INCLINATION":98.2453,"RA_OF_ASC_NODE":267.9231,"ARG_OF_PERICENTER":71.2095,"MEAN_ANOMALY":289.1156,"EPHEMERIS_TYPE":0,"CLASSIFICATION_TYPE":"U","NORAD_CAT_ID":44610,"ELEMENT_SET_NO":999,"REV_AT_EPOCH":45422,"BSTAR":0.00057216024,"MEAN_MOTION_DOT":8.702e-5,"MEAN_MOTION_DDOT":0}]
